{
  "type": "FeatureCollection",
  "features": [
    {
      "type": "Feature",
      "properties": {
        "norad_id": 43260,
        "name": "GAOFEN-1 03",
        "group": "resource",
        "lat": -29.192149672237,
        "lon": 40.37476213205727,
        "alt_km": 644.9606216240863,
        "timestamp": "2025-12-04T03:47:54.211365+00:00",
        "meta_object_name": "GAOFEN-1 03",
        "meta_object_id": "2018-031B",
        "meta_epoch": "2025-12-03T21:25:31.878048",
        "meta_mean_motion": 14.76406608,
        "meta_eccentricity": 0.0002595,
        "meta_inclination": 98.0811,
        "meta_ra_of_asc_node": 35.5562,
        "meta_arg_of_pericenter": 357.1112,
        "meta_mean_anomaly": 3.0082,
        "meta_ephemeris_type": 0,
        "meta_classification_type": "U",
        "meta_norad_cat_id": 43260,
        "meta_element_set_no": 999,
        "meta_rev_at_epoch": 41387,
        "meta_bstar": 0.00023274,
        "meta_mean_motion_dot": 1.566e-05,
        "meta_mean_motion_ddot": 0,
        "tle_line1": "1 43260U 18031B   25337.89273007  .00001566  00000+0  23274-3 0  9992",
        "tle_line2": "2 43260  98.0811  35.5562 0002595 357.1112   3.0082 14.76406608413879"
      },
      "geometry": {
        "type": "Point",
        "coordinates": [
          40.37476213205727,
          -29.192149672237
        ]
      }
    },
    {
      "type": "Feature",
      "properties": {
        "norad_id": 43262,
        "name": "GAOFEN-1 04",
        "group": "resource",
        "lat": 77.4652230891866,
        "lon": -104.28405309271905,
        "alt_km": 632.6337750689627,
        "timestamp": "2025-12-04T03:47:54.211375+00:00",
        "meta_object_name": "GAOFEN-1 04",
        "meta_object_id": "2018-031D",
        "meta_epoch": "2025-12-03T20:50:34.548288",
        "meta_mean_motion": 14.76419465,
        "meta_eccentricity": 0.0001335,
        "meta_inclination": 98.082,
        "meta_ra_of_asc_node": 35.7,
        "meta_arg_of_pericenter": 62.1829,
        "meta_mean_anomaly": 297.9515,
        "meta_ephemeris_type": 0,
        "meta_classification_type": "U",
        "meta_norad_cat_id": 43262,
        "meta_element_set_no": 999,
        "meta_rev_at_epoch": 41386,
        "meta_bstar": 0.00022772,
        "meta_mean_motion_dot": 1.531e-05,
        "meta_mean_motion_ddot": 0,
        "tle_line1": "1 43262U 18031D   25337.86845542  .00001531  00000+0  22772-3 0  9994",
        "tle_line2": "2 43262  98.0820  35.7000 0001335  62.1829 297.9515 14.76419465413868"
      },
      "geometry": {
        "type": "Point",
        "coordinates": [
          -104.28405309271905,
          77.4652230891866
        ]
      }
    },
    {
      "type": "Feature",
      "properties": {
        "norad_id": 43437,
        "name": "SENTINEL-3B",
        "group": "resource",
        "lat": -1.1009298333340771,
        "lon": 43.63328911053768,
        "alt_km": 806.1123168042513,
        "timestamp": "2025-12-04T03:47:54.211385+00:00",
        "meta_object_name": "SENTINEL-3B",
        "meta_object_id": "2018-039A",
        "meta_epoch": "2025-12-03T19:23:16.855008",
        "meta_mean_motion": 14.26737137,
        "meta_eccentricity": 0.0001472,
        "meta_inclination": 98.6279,
        "meta_ra_of_asc_node": 43.1207,
        "meta_arg_of_pericenter": 111.4511,
        "meta_mean_anomaly": 248.6827,
        "meta_ephemeris_type": 0,
        "meta_classification_type": "U",
        "meta_norad_cat_id": 43437,
        "meta_element_set_no": 999,
        "meta_rev_at_epoch": 39626,
        "meta_bstar": 0.00011751,
        "meta_mean_motion_dot": 2.41e-06,
        "meta_mean_motion_ddot": 0,
        "tle_line1": "1 43437U 18039A   25337.80783397  .00000241  00000+0  11751-3 0  9991",
        "tle_line2": "2 43437  98.6279  43.1207 0001472 111.4511 248.6827 14.26737137396263"
      },
      "geometry": {
        "type": "Point",
        "coordinates": [
          43.63328911053768,
          -1.1009298333340771
        ]
      }
    },
    {
      "type": "Feature",
      "properties": {
        "norad_id": 43461,
        "name": "GAOFEN-5 01",
        "group": "resource",
        "lat": 29.238258715123067,
        "lon": -63.78618757462161,
        "alt_km": 689.4714509254327,
        "timestamp": "2025-12-04T03:47:54.211399+00:00",
        "meta_object_name": "GAOFEN-5 01",
        "meta_object_id": "2018-043A",
        "meta_epoch": "2025-12-03T19:26:29.622048",
        "meta_mean_motion": 14.6039309,
        "meta_eccentricity": 0.0001542,
        "meta_inclination": 98.4313,
        "meta_ra_of_asc_node": 300.6221,
        "meta_arg_of_pericenter": 9.2312,
        "meta_mean_anomaly": 350.8915,
        "meta_ephemeris_type": 0,
        "meta_classification_type": "U",
        "meta_norad_cat_id": 43461,
        "meta_element_set_no": 999,
        "meta_rev_at_epoch": 40317,
        "meta_bstar": 0.00016952,
        "meta_mean_motion_dot": 7.72e-06,
        "meta_mean_motion_ddot": 0,
        "tle_line1": "1 43461U 18043A   25337.81006507  .00000772  00000+0  16952-3 0  9992",
        "tle_line2": "2 43461  98.4313 300.6221 0001542   9.2312 350.8915 14.60393090403172"
      },
      "geometry": {
        "type": "Point",
        "coordinates": [
          -63.78618757462161,
          29.238258715123067
        ]
      }
    },
    {
      "type": "Feature",
      "properties": {
        "norad_id": 43484,
        "name": "GAOFEN-6",
        "group": "resource",
        "lat": -66.17763925614068,
        "lon": -155.38464645844303,
        "alt_km": 656.2130416171203,
        "timestamp": "2025-12-04T03:47:54.211410+00:00",
        "meta_object_name": "GAOFEN-6",
        "meta_object_id": "2018-048A",
        "meta_epoch": "2025-12-03T18:33:00.821952",
        "meta_mean_motion": 14.76537214,
        "meta_eccentricity": 0.0013319,
        "meta_inclination": 97.8044,
        "meta_ra_of_asc_node": 42.3407,
        "meta_arg_of_pericenter": 90.1846,
        "meta_mean_anomaly": 270.0891,
        "meta_ephemeris_type": 0,
        "meta_classification_type": "U",
        "meta_norad_cat_id": 43484,
        "meta_element_set_no": 999,
        "meta_rev_at_epoch": 40455,
        "meta_bstar": 8.8463e-05,
        "meta_mean_motion_dot": 5.68e-06,
        "meta_mean_motion_ddot": 0,
        "tle_line1": "1 43484U 18048A   25337.77292618  .00000568  00000+0  88463-4 0  9997",
        "tle_line2": "2 43484  97.8044  42.3407 0013319  90.1846 270.0891 14.76537214404557"
      },
      "geometry": {
        "type": "Point",
        "coordinates": [
          -155.38464645844303,
          -66.17763925614068
        ]
      }
    },
    {
      "type": "Feature",
      "properties": {
        "norad_id": 43585,
        "name": "GAOFEN-11 01",
        "group": "resource",
        "lat": -21.565327947466525,
        "lon": 44.01405342793059,
        "alt_km": 422.27094406533706,
        "timestamp": "2025-12-04T03:47:54.211421+00:00",
        "meta_object_name": "GAOFEN-11 01",
        "meta_object_id": "2018-063A",
        "meta_epoch": "2025-12-03T20:08:20.901984",
        "meta_mean_motion": 15.48834251,
        "meta_eccentricity": 0.0004925,
        "meta_inclination": 97.158,
        "meta_ra_of_asc_node": 40.8506,
        "meta_arg_of_pericenter": 351.9409,
        "meta_mean_anomaly": 8.1762,
        "meta_ephemeris_type": 0,
        "meta_classification_type": "U",
        "meta_norad_cat_id": 43585,
        "meta_element_set_no": 999,
        "meta_rev_at_epoch": 41004,
        "meta_bstar": 0.00040883,
        "meta_mean_motion_dot": 0.00021943,
        "meta_mean_motion_ddot": 0,
        "tle_line1": "1 43585U 18063A   25337.83913081  .00021943  00000+0  40883-3 0  9990",
        "tle_line2": "2 43585  97.1580  40.8506 0004925 351.9409   8.1762 15.48834251410045"
      },
      "geometry": {
        "type": "Point",
        "coordinates": [
          44.01405342793059,
          -21.565327947466525
        ]
      }
    },
    {
      "type": "Feature",
      "properties": {
        "norad_id": 43613,
        "name": "ICESAT-2",
        "group": "resource",
        "lat": -1.6818224374019397,
        "lon": -121.52050058836016,
        "alt_km": 484.61200528534664,
        "timestamp": "2025-12-04T03:47:54.211431+00:00",
        "meta_object_name": "ICESAT-2",
        "meta_object_id": "2018-070A",
        "meta_epoch": "2025-12-03T18:22:35.716224",
        "meta_mean_motion": 15.28237074,
        "meta_eccentricity": 3.58e-05,
        "meta_inclination": 92.0056,
        "meta_ra_of_asc_node": 238.3146,
        "meta_arg_of_pericenter": 129.8429,
        "meta_mean_anomaly": 230.2852,
        "meta_ephemeris_type": 0,
        "meta_classification_type": "U",
        "meta_norad_cat_id": 43613,
        "meta_element_set_no": 999,
        "meta_rev_at_epoch": 40261,
        "meta_bstar": 0.00072473,
        "meta_mean_motion_dot": 0.00019954,
        "meta_mean_motion_ddot": 0,
        "tle_line1": "1 43613U 18070A   25337.76569116  .00019954  00000+0  72473-3 0  9997",
        "tle_line2": "2 43613  92.0056 238.3146 0000358 129.8429 230.2852 15.28237074402613"
      },
      "geometry": {
        "type": "Point",
        "coordinates": [
          -121.52050058836016,
          -1.6818224374019397
        ]
      }
    }
  ]
}